QPS-SAR-5 (TSUKUYOMI-I) 
1 58578U 23196A   26194.27362388  .00005901  00000+0  25235-3 0  9999
2 58578  42.0076 227.2695 0025238  97.1162 263.2544 15.23159524142227
YAOGAN-41               
1 58582U 23197A   26194.30026845 -.00000360  00000+0  00000+0 0  9998
2 58582   3.0824 313.5472 0014256 198.6913  10.1784  1.00266522  9584
ARKTIKA-M 2             
1 58584U 23198A   26191.19028483  .00000186  00000+0  00000+0 0  9990
2 58584  63.2187 151.7914 6909064 267.3543  18.7503  2.00608615 18787
STARLINK-31044          
1 58589U 23200A   26194.00745807 -.00000710  00000+0 -16265-4 0  9998
2 58589  43.0030 181.3564 0001176 277.0318  83.0400 15.27574094142778
STARLINK-31062          
1 58590U 23200B   26194.04536637  .00001100  00000+0  49483-4 0  9993
2 58590  43.0023 184.2134 0001568 265.7898  94.2774 15.27577286142740
STARLINK-31096          
1 58592U 23200D   26194.29725875  .00040502  00000+0  10649-2 0  9995
2 58592  42.9955 176.6234 0013753 124.3394 235.8764 15.37815733142857
STARLINK-31094          
1 58593U 23200E   26192.99968567 -.00001118  00000+0 -31117-4 0  9995
2 58593  42.9995 186.7168 0000842 286.8982  73.1777 15.27584007142620
STARLINK-31075          
1 58594U 23200F   26193.37138376  .00007534  00000+0  28257-3 0  9992
2 58594  43.0038 184.3433 0001760 260.5230  99.5423 15.27633382142682
STARLINK-30857          
1 58595U 23200G   26193.98818246  .00000856  00000+0  40634-4 0  9995
2 58595  43.0004 181.2324 0001177 276.1238  83.9479 15.27579574142774
STARLINK-31059          
1 58596U 23200H   26193.92171828  .00000438  00000+0  25455-4 0  9998
2 58596  43.0040  24.8886 0001320 263.5039  96.5662 15.27576588144609
STARLINK-31087          
1 58597U 23200J   26194.02915669  .00001026  00000+0  46814-4 0  9996
2 58597  43.0033 180.6864 0001656 274.9203  85.1459 15.27580357142672
STARLINK-31079          
1 58598U 23200K   26194.16901965  .00073341  00000+0  52878-3 0  9991
2 58598  42.9737 120.1569 0032176 180.9089 179.1725 15.71894195143490
STARLINK-31052          
1 58600U 23200M   26194.29455645  .00001467  00000+0  62823-4 0  9990
2 58600  43.0021 179.2339 0001506 275.1058  84.9622 15.27579554142823
STARLINK-31074          
1 58601U 23200N   26194.03686460  .00000666  00000+0  33729-4 0  9997
2 58601  43.0012 180.7363 0001455 279.0536  81.0151 15.27578860142784
STARLINK-31071          
1 58602U 23200P   26193.92605295 -.00000150  00000+0  40640-5 0  9992
2 58602  43.0029  21.4068 0001306 259.9822 100.0883 15.27577668144642
STARLINK-31080          
1 58603U 23200Q   26194.30226565  .00000920  00000+0  42961-4 0  9996
2 58603  43.0012 179.2810 0001191 273.5077  86.5638 15.27579708142638
STARLINK-31088          
1 58604U 23200R   26194.30482670  .00005290  00000+0  20153-3 0  9991
2 58604  42.9995 179.2902 0001056 279.7171  80.3562 15.27596879142829
STARLINK-31038          
1 58605U 23200S   26194.30626340  .00048100  00000+0  12398-2 0  9994
2 58605  42.9954 174.9943 0010833 116.3300 243.8669 15.38395458142876
STARLINK-31082          
1 58606U 23200T   26194.30869011  .00000561  00000+0  29921-4 0  9990
2 58606  43.0014 179.3336 0001307 264.8035  95.2667 15.27576332142823
STARLINK-31069          
1 58607U 23200U   26193.33560773  .00000118  00000+0  13796-4 0  9997
2 58607  42.9994 184.9254 0001021 295.2327  64.8419 15.27575081142675
STARLINK-31067          
1 58608U 23200V   26193.47023400 -.00000600  00000+0 -12278-4 0  9996
2 58608  42.9993 184.2166 0000709 290.3212  69.7564 15.27578741142694
STARLINK-31085          
1 58609U 23200W   26193.47408570 -.00000206  00000+0  20247-5 0  9999
2 58609  43.0005 184.2441 0000919 271.6844  88.3903 15.27578373142698
STARLINK-31089          
1 58610U 23200X   26194.01130462 -.00000373  00000+0 -40538-5 0  9995
2 58610  42.9941 181.3388 0000940 185.7701 174.3139 15.27573330142770
STARLINK-31061          
1 58611U 23200Y   26193.34588325  .00000071  00000+0  12109-4 0  9991
2 58611  43.0010 185.0001 0001334 276.4472  83.6227 15.27574453142670
COSMOS 2573             
1 58614U 23201A   26194.29879147  .00001980  00000+0  82251-4 0  9990
2 58614  97.6283 144.2335 0000913  55.2934 304.8389 15.25048473142465
STARLINK-31054          
1 58619U 23203B   26194.06116752 -.00000620  00000+0 -13014-4 0  9991
2 58619  43.0020  79.2115 0000866 275.7402  84.3351 15.27586186142732
STARLINK-31134          
1 58621U 23203D   26193.03682791  .00002269  00000+0  92007-4 0  9999
2 58621  43.0030  85.2801 0001508 253.0337 107.0349 15.27563469142576
STARLINK-31133          
1 58622U 23203E   26194.05730674  .00000885  00000+0  41660-4 0  9998
2 58622  43.0013  79.1807 0001258 265.6470  94.4238 15.27585390142736
STARLINK-31068          
1 58623U 23203F   26193.79189114  .00003028  00000+0  11944-3 0  9999
2 58623  43.0013  80.6282 0001609 246.3313 113.7370 15.27600262142696
STARLINK-31129          
1 58624U 23203G   26194.05087523  .00018370  00000+0  67353-3 0  9992
2 58624  43.0028  79.1339 0001647 262.6048  97.4616 15.27671263142732
