OBJECT_NAME,OBJECT_ID,EPOCH,MEAN_MOTION,ECCENTRICITY,INCLINATION,RA_OF_ASC_NODE,ARG_OF_PERICENTER,MEAN_ANOMALY,EPHEMERIS_TYPE,CLASSIFICATION_TYPE,NORAD_CAT_ID,ELEMENT_SET_NO,REV_AT_EPOCH,BSTAR,MEAN_MOTION_DOT,MEAN_MOTION_DDOT
QPS-SAR-5 (TSUKUYOMI-I),2023-196A,2026-07-13T06:34:01.103232,15.23159524,.00252384,42.0076,227.2695,97.1162,263.2544,0,U,58578,999,14222,.25235173E-3,.5901E-4,0
YAOGAN-41,2023-197A,2026-07-13T07:12:23.194080,1.00266522,.00142566,3.0824,313.5472,198.6913,10.1784,0,U,58582,999,958,0,-.36E-5,0
ARKTIKA-M 2,2023-198A,2026-07-10T04:34:00.609312,2.00608615,.69090643,63.2187,151.7914,267.3543,18.7503,0,U,58584,999,1878,0,.186E-5,0
STARLINK-31044,2023-200A,2026-07-13T00:10:44.377248,15.27574094,.00011761,43.0030,181.3564,277.0318,83.0400,0,U,58589,999,14277,-.16265176E-4,-.71E-5,0
STARLINK-31062,2023-200B,2026-07-13T01:05:19.654368,15.27577286,.0001568,43.0023,184.2134,265.7898,94.2774,0,U,58590,999,14274,.49483497E-4,.11E-4,0
STARLINK-31096,2023-200D,2026-07-13T07:08:03.156000,15.37815733,.00137536,42.9955,176.6234,124.3394,235.8764,0,U,58592,999,14285,.1064929E-2,.40502E-3,0
STARLINK-31094,2023-200E,2026-07-11T23:59:32.841888,15.27584007,.00008426,42.9995,186.7168,286.8982,73.1777,0,U,58593,999,14262,-.31116507E-4,-.1118E-4,0
STARLINK-31075,2023-200F,2026-07-12T08:54:47.556864,15.27633382,.00017602,43.0038,184.3433,260.5230,99.5423,0,U,58594,999,14268,.28257247E-3,.7534E-4,0
STARLINK-30857,2023-200G,2026-07-12T23:42:58.964544,15.27579574,.00011778,43.0004,181.2324,276.1238,83.9479,0,U,58595,999,14277,.40634158E-4,.856E-5,0
STARLINK-31059,2023-200H,2026-07-12T22:07:16.459392,15.27576588,.00013204,43.0040,24.8886,263.5039,96.5662,0,U,58596,999,14460,.25455462E-4,.438E-5,0
STARLINK-31087,2023-200J,2026-07-13T00:41:59.138016,15.27580357,.0001656,43.0033,180.6864,274.9203,85.1459,0,U,58597,999,14267,.46814294E-4,.1026E-4,0
STARLINK-31079,2023-200K,2026-07-13T04:03:23.297760,15.71894195,.00321768,42.9737,120.1569,180.9089,179.1725,0,U,58598,999,14349,.52878278E-3,.73341E-3,0
STARLINK-31052,2023-200M,2026-07-13T07:04:09.677280,15.27579554,.00015065,43.0021,179.2339,275.1058,84.9622,0,U,58600,999,14282,.628228E-4,.1467E-4,0
STARLINK-31074,2023-200N,2026-07-13T00:53:05.101440,15.27578860,.00014555,43.0012,180.7363,279.0536,81.0151,0,U,58601,999,14278,.33728712E-4,.666E-5,0
STARLINK-31071,2023-200P,2026-07-12T22:13:30.974880,15.27577668,.00013069,43.0029,21.4068,259.9822,100.0883,0,U,58602,999,14464,.4064018E-5,-.15E-5,0
STARLINK-31080,2023-200Q,2026-07-13T07:15:15.752160,15.27579708,.00011916,43.0012,179.2810,273.5077,86.5638,0,U,58603,999,14263,.42960845E-4,.92E-5,0
STARLINK-31088,2023-200R,2026-07-13T07:18:57.026880,15.27596879,.00010567,42.9995,179.2902,279.7171,80.3562,0,U,58604,999,14282,.20153048E-3,.529E-4,0
STARLINK-31038,2023-200S,2026-07-13T07:21:01.157760,15.38395458,.00108339,42.9954,174.9943,116.3300,243.8669,0,U,58605,999,14287,.12398281E-2,.481E-3,0
STARLINK-31082,2023-200T,2026-07-13T07:24:30.825504,15.27576332,.00013072,43.0014,179.3336,264.8035,95.2667,0,U,58606,999,14282,.29921006E-4,.561E-5,0
STARLINK-31069,2023-200U,2026-07-12T08:03:16.507872,15.27575081,.00010214,42.9994,184.9254,295.2327,64.8419,0,U,58607,999,14267,.13796413E-4,.118E-5,0
STARLINK-31067,2023-200V,2026-07-12T11:17:08.217600,15.27578741,.00007095,42.9993,184.2166,290.3212,69.7564,0,U,58608,999,14269,-.12278063E-4,-.6E-5,0
STARLINK-31085,2023-200W,2026-07-12T11:22:41.004480,15.27578373,.00009191,43.0005,184.2441,271.6844,88.3903,0,U,58609,999,14269,.2024715E-5,-.206E-5,0
STARLINK-31089,2023-200X,2026-07-13T00:16:16.719168,15.27573330,.00009403,42.9941,181.3388,185.7701,174.3139,0,U,58610,999,14277,-.4053782E-5,-.373E-5,0
STARLINK-31061,2023-200Y,2026-07-12T08:18:04.312800,15.27574453,.00013348,43.0010,185.0001,276.4472,83.6227,0,U,58611,999,14267,.12108808E-4,.71E-6,0
COSMOS 2573,2023-201A,2026-07-13T07:10:15.583008,15.25048473,.00009136,97.6283,144.2335,55.2934,304.8389,0,U,58614,999,14246,.82251424E-4,.198E-4,0
STARLINK-31054,2023-203B,2026-07-13T01:28:04.873728,15.27586186,.00008661,43.0020,79.2115,275.7402,84.3351,0,U,58619,999,14273,-.13013749E-4,-.62E-5,0
STARLINK-31134,2023-203D,2026-07-12T00:53:01.931424,15.27563469,.00015087,43.0030,85.2801,253.0337,107.0349,0,U,58621,999,14257,.92007239E-4,.2269E-4,0
STARLINK-31133,2023-203E,2026-07-13T01:22:31.302336,15.27585390,.00012586,43.0013,79.1807,265.6470,94.4238,0,U,58622,999,14273,.41660224E-4,.885E-5,0
STARLINK-31068,2023-203F,2026-07-12T19:00:19.394496,15.27600262,.00016091,43.0013,80.6282,246.3313,113.7370,0,U,58623,999,14269,.11944008E-3,.3028E-4,0
STARLINK-31129,2023-203G,2026-07-13T01:13:15.619872,15.27671263,.00016478,43.0028,79.1339,262.6048,97.4616,0,U,58624,999,14273,.67352531E-3,.1837E-3,0
